{
  "type": "FeatureCollection",
  "features": [
    {
      "type": "Feature",
      "properties": {
        "norad_id": 66835,
        "name": "STARLINK-35890",
        "group": "last-30-days",
        "lat": 48.497317972553425,
        "lon": -150.1698599850447,
        "alt_km": 377.54085788002976,
        "timestamp": "2025-12-17T10:52:53.100995+00:00",
        "meta_object_name": "STARLINK-35890",
        "meta_object_id": "2025-280Q",
        "meta_epoch": "2025-12-16T22:00:03.000096",
        "meta_mean_motion": 15.64617709,
        "meta_eccentricity": 0.00033356,
        "meta_inclination": 69.9994,
        "meta_ra_of_asc_node": 187.0142,
        "meta_arg_of_pericenter": 271.6525,
        "meta_mean_anomaly": 1.4201,
        "meta_ephemeris_type": 0,
        "meta_classification_type": "U",
        "meta_norad_cat_id": 66835,
        "meta_element_set_no": 999,
        "meta_rev_at_epoch": 356,
        "meta_bstar": -0.02302079,
        "meta_mean_motion_dot": -0.01971218,
        "meta_mean_motion_ddot": 0,
        "tle_line1": "1 66835U 25280Q   25350.91670139 -.01971218  00000+0 -23021-1 0  9995",
        "tle_line2": "2 66835  69.9994 187.0142 0003335 271.6525   1.4201 15.64617709  3569"
      },
      "geometry": {
        "type": "Point",
        "coordinates": [
          -150.1698599850447,
          48.497317972553425
        ]
      }
    },
    {
      "type": "Feature",
      "properties": {
        "norad_id": 66836,
        "name": "STARLINK-35838",
        "group": "last-30-days",
        "lat": 50.13076337721077,
        "lon": -148.62581172040984,
        "alt_km": 377.3391569994892,
        "timestamp": "2025-12-17T10:52:53.101011+00:00",
        "meta_object_name": "STARLINK-35838",
        "meta_object_id": "2025-280R",
        "meta_epoch": "2025-12-16T22:00:03.000096",
        "meta_mean_motion": 15.64618529,
        "meta_eccentricity": 0.00033641,
        "meta_inclination": 69.9991,
        "meta_ra_of_asc_node": 187.0115,
        "meta_arg_of_pericenter": 272.7323,
        "meta_mean_anomaly": 2.2554,
        "meta_ephemeris_type": 0,
        "meta_classification_type": "U",
        "meta_norad_cat_id": 66836,
        "meta_element_set_no": 999,
        "meta_rev_at_epoch": 356,
        "meta_bstar": -0.023021707,
        "meta_mean_motion_dot": -0.01971371,
        "meta_mean_motion_ddot": 0,
        "tle_line1": "1 66836U 25280R   25350.91670139 -.01971371  00000+0 -23022-1 0  9997",
        "tle_line2": "2 66836  69.9991 187.0115 0003364 272.7323   2.2554 15.64618529  3568"
      },
      "geometry": {
        "type": "Point",
        "coordinates": [
          -148.62581172040984,
          50.13076337721077
        ]
      }
    },
    {
      "type": "Feature",
      "properties": {
        "norad_id": 66837,
        "name": "STARLINK-35729",
        "group": "last-30-days",
        "lat": 51.74727690324553,
        "lon": -146.96893237850034,
        "alt_km": 377.13133911992463,
        "timestamp": "2025-12-17T10:52:53.101204+00:00",
        "meta_object_name": "STARLINK-35729",
        "meta_object_id": "2025-280S",
        "meta_epoch": "2025-12-16T22:00:03.000096",
        "meta_mean_motion": 15.64610127,
        "meta_eccentricity": 0.00033793,
        "meta_inclination": 69.9995,
        "meta_ra_of_asc_node": 187.0087,
        "meta_arg_of_pericenter": 272.7516,
        "meta_mean_anomaly": 4.1541,
        "meta_ephemeris_type": 0,
        "meta_classification_type": "U",
        "meta_norad_cat_id": 66837,
        "meta_element_set_no": 999,
        "meta_rev_at_epoch": 356,
        "meta_bstar": -0.022806441,
        "meta_mean_motion_dot": -0.01954531,
        "meta_mean_motion_ddot": 0,
        "tle_line1": "1 66837U 25280S   25350.91670139 -.01954531  00000+0 -22806-1 0  9996",
        "tle_line2": "2 66837  69.9995 187.0087 0003379 272.7516   4.1541 15.64610127  3564"
      },
      "geometry": {
        "type": "Point",
        "coordinates": [
          -146.96893237850034,
          51.74727690324553
        ]
      }
    },
    {
      "type": "Feature",
      "properties": {
        "norad_id": 66838,
        "name": "STARLINK-35886",
        "group": "last-30-days",
        "lat": 54.88526247047163,
        "lon": -143.29261435812248,
        "alt_km": 376.7694778080904,
        "timestamp": "2025-12-17T10:52:53.101219+00:00",
        "meta_object_name": "STARLINK-35886",
        "meta_object_id": "2025-280T",
        "meta_epoch": "2025-12-16T22:00:03.000096",
        "meta_mean_motion": 15.64616116,
        "meta_eccentricity": 0.00032749,
        "meta_inclination": 69.9996,
        "meta_ra_of_asc_node": 187.0041,
        "meta_arg_of_pericenter": 272.5175,
        "meta_mean_anomaly": 8.2223,
        "meta_ephemeris_type": 0,
        "meta_classification_type": "U",
        "meta_norad_cat_id": 66838,
        "meta_element_set_no": 999,
        "meta_rev_at_epoch": 356,
        "meta_bstar": -0.022997714,
        "meta_mean_motion_dot": -0.01969308,
        "meta_mean_motion_ddot": 0,
        "tle_line1": "1 66838U 25280T   25350.91670139 -.01969308  00000+0 -22998-1 0  9997",
        "tle_line2": "2 66838  69.9996 187.0041 0003274 272.5175   8.2223 15.64616116  3565"
      },
      "geometry": {
        "type": "Point",
        "coordinates": [
          -143.29261435812248,
          54.88526247047163
        ]
      }
    },
    {
      "type": "Feature",
      "properties": {
        "norad_id": 66839,
        "name": "STARLINK-35717",
        "group": "last-30-days",
        "lat": 53.327939666652895,
        "lon": -145.20060663521443,
        "alt_km": 377.0199363721549,
        "timestamp": "2025-12-17T10:52:53.101230+00:00",
        "meta_object_name": "STARLINK-35717",
        "meta_object_id": "2025-280U",
        "meta_epoch": "2025-12-16T22:00:03.000096",
        "meta_mean_motion": 15.64616814,
        "meta_eccentricity": 0.00034499,
        "meta_inclination": 69.9991,
        "meta_ra_of_asc_node": 187.0064,
        "meta_arg_of_pericenter": 273.3649,
        "meta_mean_anomaly": 5.4568,
        "meta_ephemeris_type": 0,
        "meta_classification_type": "U",
        "meta_norad_cat_id": 66839,
        "meta_element_set_no": 999,
        "meta_rev_at_epoch": 356,
        "meta_bstar": -0.023004527,
        "meta_mean_motion_dot": -0.01970034,
        "meta_mean_motion_ddot": 0,
        "tle_line1": "1 66839U 25280U   25350.91670139 -.01970034  00000+0 -23005-1 0  9996",
        "tle_line2": "2 66839  69.9991 187.0064 0003449 273.3649   5.4568 15.64616814  3561"
      },
      "geometry": {
        "type": "Point",
        "coordinates": [
          -145.20060663521443,
          53.327939666652895
        ]
      }
    },
    {
      "type": "Feature",
      "properties": {
        "norad_id": 66840,
        "name": "STARLINK-35837",
        "group": "last-30-days",
        "lat": 56.41222704383968,
        "lon": -141.2273895868286,
        "alt_km": 376.59722869507914,
        "timestamp": "2025-12-17T10:52:53.101240+00:00",
        "meta_object_name": "STARLINK-35837",
        "meta_object_id": "2025-280V",
        "meta_epoch": "2025-12-16T22:00:03.000096",
        "meta_mean_motion": 15.6461397,
        "meta_eccentricity": 0.00032354,
        "meta_inclination": 69.9991,
        "meta_ra_of_asc_node": 187.0023,
        "meta_arg_of_pericenter": 271.0253,
        "meta_mean_anomaly": 11.6301,
        "meta_ephemeris_type": 0,
        "meta_classification_type": "U",
        "meta_norad_cat_id": 66840,
        "meta_element_set_no": 999,
        "meta_rev_at_epoch": 356,
        "meta_bstar": -0.022909394,
        "meta_mean_motion_dot": -0.01962451,
        "meta_mean_motion_ddot": 0,
        "tle_line1": "1 66840U 25280V   25350.91670139 -.01962451  00000+0 -22909-1 0  9994",
        "tle_line2": "2 66840  69.9991 187.0023 0003235 271.0253  11.6301 15.64613970  3561"
      },
      "geometry": {
        "type": "Point",
        "coordinates": [
          -141.2273895868286,
          56.41222704383968
        ]
      }
    },
    {
      "type": "Feature",
      "properties": {
        "norad_id": 66841,
        "name": "STARLINK-35715",
        "group": "last-30-days",
        "lat": 57.900126321092365,
        "lon": -138.99554178572225,
        "alt_km": 376.5420356683644,
        "timestamp": "2025-12-17T10:52:53.101254+00:00",
        "meta_object_name": "STARLINK-35715",
        "meta_object_id": "2025-280W",
        "meta_epoch": "2025-12-16T22:00:03.000096",
        "meta_mean_motion": 15.64615629,
        "meta_eccentricity": 0.00034175,
        "meta_inclination": 69.9989,
        "meta_ra_of_asc_node": 187,
        "meta_arg_of_pericenter": 272.3345,
        "meta_mean_anomaly": 12.2364,
        "meta_ephemeris_type": 0,
        "meta_classification_type": "U",
        "meta_norad_cat_id": 66841,
        "meta_element_set_no": 999,
        "meta_rev_at_epoch": 356,
        "meta_bstar": -0.022951469,
        "meta_mean_motion_dot": -0.01965914,
        "meta_mean_motion_ddot": 0,
        "tle_line1": "1 66841U 25280W   25350.91670139 -.01965914  00000+0 -22951-1 0  9999",
        "tle_line2": "2 66841  69.9989 187.0000 0003417 272.3345  12.2364 15.64615629  3561"
      },
      "geometry": {
        "type": "Point",
        "coordinates": [
          -138.99554178572225,
          57.900126321092365
        ]
      }
    }
  ]
}